[{"OBJECT_NAME":"STARLINK-6335","OBJECT_ID":"2023-065AA","EPOCH":"2026-03-09T10:45:54.897984","MEAN_MOTION":15.0253628,"ECCENTRICITY":0.00012012,"INCLINATION":43.0007,"RA_OF_ASC_NODE":211.1962,"ARG_OF_PERICENTER":265.9221,"MEAN_ANOMALY":94.1484,"EPHEMERIS_TYPE":0,"CLASSIFICATION_TYPE":"U","NORAD_CAT_ID":56527,"ELEMENT_SET_NO":999,"REV_AT_EPOCH":15659,"BSTAR":2.1691602e-5,"MEAN_MOTION_DOT":8.9e-7,"MEAN_MOTION_DDOT":0},{"OBJECT_NAME":"THOR ALTAIR DEB","OBJECT_ID":"1966-026D","EPOCH":"2026-03-09T21:08:08.495232","MEAN_MOTION":14.80090516,"ECCENTRICITY":0.01273304,"INCLINATION":98.9687,"RA_OF_ASC_NODE":49.0062,"ARG_OF_PERICENTER":303.87,"MEAN_ANOMALY":55.0446,"EPHEMERIS_TYPE":0,"CLASSIFICATION_TYPE":"U","NORAD_CAT_ID":2177,"ELEMENT_SET_NO":999,"REV_AT_EPOCH":14815,"BSTAR":0.00075855056,"MEAN_MOTION_DOT":6.533e-5,"MEAN_MOTION_DDOT":0}]
